KUIPER-00177            
1 67766U 26030C   26064.78154418  .00033225  00000+0  92950-3 0  9991
2 67766  51.8828 237.8821 0001156  18.0817 342.0211 15.36355024  4499
KUIPER-00178            
1 67767U 26030D   26064.79570686  .00038597  00000+0  11114-2 0  9991
2 67767  51.8838 237.9741 0006270  34.8327 325.3068 15.35365387  4493
KUIPER-00180            
1 67768U 26030E   26064.76185382 -.00004168  00000+0 -12011-3 0  9991
2 67768  51.8804 238.4805 0014404  57.5578 302.6798 15.32117434  4484
KUIPER-00197            
1 67769U 26030F   26064.78372046  .00032982  00000+0  92657-3 0  9996
2 67769  51.8832 237.8960 0001391  52.3520 307.7592 15.36228301  4491
KUIPER-00198            
1 67770U 26030G   26064.78867438  .00031493  00000+0  89549-3 0  9994
2 67770  51.8813 237.9228 0003403  36.5012 323.6206 15.35870690  4498
KUIPER-00199            
1 67771U 26030H   26064.74573259  .00025269  00000+0  75983-3 0  9997
2 67771  51.8813 238.3778 0010385  49.7237 310.4654 15.34187224  4489
KUIPER-00200            
1 67772U 26030J   26064.84026779  .00037261  00000+0  10230-2 0  9997
2 67772  51.8806 237.5237 0001234 221.9885 138.1007 15.36884427  4500
KUIPER-00203            
1 67773U 26030K   26064.83334490 -.01321904  00000+0 -61264-1 0  9994
2 67773  51.8819 238.2396 0011478  47.6304 276.6812 15.22658852  3067
KUIPER-00205            
1 67774U 26030L   26064.78447141  .00027412  00000+0  77285-3 0  9993
2 67774  51.8809 237.8966 0002910  10.4382 349.6664 15.36210653  4492
KUIPER-00208            
1 67775U 26030M   26064.75905675  .00037381  00000+0  11804-2 0  9992
2 67775  51.8832 238.4719 0014598  49.5668 310.6588 15.32378848  4486
KUIPER-00209            
1 67776U 26030N   26064.83334490 -.00217988  00000+0 -74769-2 0  9997
2 67776  51.8821 238.1783 0013055  57.1184 321.2066 15.30440122  3894
KUIPER-00213            
1 67777U 26030P   26064.75969397  .00022891  00000+0  72412-3 0  9998
2 67777  51.8805 238.4668 0014887  53.4630 306.7723 15.32579732  4487
